NORAD_CAT_ID,OBJECT_NAME,OBJECT_TYPE,EPOCH,MEAN_MOTION,ECCENTRICITY,INCLINATION,RA_OF_ASC_NODE,ARG_OF_PERICENTER,MEAN_ANOMALY,BSTAR,MEAN_MOTION_DOT,MEAN_MOTION_DDOT,TLE_LINE0,TLE_LINE1,TLE_LINE2,SEMIMAJOR_AXIS,PERIOD,APOGEE,PERIGEE,DECAYED
55954.0,STARLINK-5892,PAYLOAD,2024-06-06 12:28:10,14.98329798,0.0002542,70.0014,81.0113,274.976,85.1109,-1.4456e-05,-2.65e-06,0.0,0 STARLINK-5892,1 55954U 23037AS  24158.51956396 -.00000265  00000-0 -14456-4 0  9996,2 55954  70.0014  81.0113 0002542 274.9760  85.1109 14.98329798 68776,6950.194,96.107,573.825,570.292,0.0
55954.0,STARLINK-5892,PAYLOAD,2024-06-07 12:30:10,14.98330622,0.0003178,70.0019,78.4844,269.2903,90.7892,7.1043e-05,7.55e-06,0.0,0 STARLINK-5892,1 55954U 23037AS  24159.52095896  .00000755  00000-0  71043-4 0  9994,2 55954  70.0019  78.4844 0003178 269.2903  90.7892 14.98330622 68920,6950.191,96.107,574.265,569.847,0.0
55954.0,STARLINK-5892,PAYLOAD,2024-06-07 22:06:59,14.98333235,0.0002764,69.9991,77.4756,268.1911,91.8932,-4.2275e-05,-5.97e-06,0.0,0 STARLINK-5892,1 55954U 23037AS  24159.92152145 -.00000597  00000-0 -42275-4 0  9990,2 55954  69.9991  77.4756 0002764 268.1911  91.8932 14.98333235 68643,6950.183,96.107,573.969,570.127,0.0
55954.0,STARLINK-5892,PAYLOAD,2024-06-08 04:31:31,14.98337658,0.0002773,70.0004,76.8031,266.9269,93.1572,-1.3212e-05,-2.51e-06,0.0,0 STARLINK-5892,1 55954U 23037AS  24160.18855614 -.00000251  00000-0 -13212-4 0  9997,2 55954  70.0004  76.8031 0002773 266.9269  93.1572 14.98337658 68684,6950.169,96.107,573.961,570.107,0.0
55954.0,STARLINK-5892,PAYLOAD,2024-06-08 22:09:00,14.98325911,0.0002858,69.9995,74.9504,264.0759,96.0074,-8.8406e-05,-1.148e-05,0.0,0 STARLINK-5892,1 55954U 23037AS  24160.92292559 -.00001148  00000-0 -88406-4 0  9995,2 55954  69.9995  74.9504 0002858 264.0759  96.0074 14.98325911 68791,6950.206,96.107,574.057,570.084,0.0
55954.0,STARLINK-5892,PAYLOAD,2024-06-09 04:33:32,14.98330614,0.000307,70.0004,74.2795,271.461,88.6197,-8.3361e-05,-1.088e-05,0.0,0 STARLINK-5892,1 55954U 23037AS  24161.18996316 -.00001088  00000-0 -83361-4 0  9994,2 55954  70.0004  74.2795 0003070 271.4610  88.6197 14.98330614 69177,6950.191,96.107,574.19,569.922,0.0
55954.0,STARLINK-5892,PAYLOAD,2024-06-09 22:11:01,14.98329399,0.0002769,70.0002,72.4277,271.8743,88.2098,7.5229e-08,-9.2e-07,0.0,0 STARLINK-5892,1 55954U 23037AS  24161.92432257 -.00000092  00000-0  75229-7 0  9995,2 55954  70.0002  72.4277 0002769 271.8743  88.2098 14.98329399 68943,6950.195,96.107,573.984,570.135,0.0
55954.0,STARLINK-5892,PAYLOAD,2024-06-10 04:35:32,14.98340069,0.0002966,69.9998,71.7538,268.4703,91.6116,7.6073e-05,8.15e-06,0.0,0 STARLINK-5892,1 55954U 23037AS  24162.19135209  .00000815  00000-0  76073-4 0  9999,2 55954  69.9998  71.7538 0002966 268.4703  91.6116 14.98340069 69322,6950.162,96.106,574.088,569.965,0.0
55954.0,STARLINK-5892,PAYLOAD,2024-06-10 11:00:05,14.98333225,0.0002488,70.0008,71.08,276.1167,83.9709,-4.3879e-05,-6.16e-06,0.0,0 STARLINK-5892,1 55954U 23037AS  24162.45840056 -.00000616  00000-0 -43879-4 0  9990,2 55954  70.0008  71.0800 0002488 276.1167  83.9709 14.98333225 69363,6950.183,96.107,573.777,570.319,0.0
55954.0,STARLINK-5892,PAYLOAD,2024-06-10 22:13:02,14.98320729,0.0002879,70.0,69.9021,274.8785,85.2045,9.3367e-05,1.021e-05,0.0,0 STARLINK-5892,1 55954U 23037AS  24162.92572453  .00001021  00000-0  93367-4 0  9991,2 55954  70.0000  69.9021 0002879 274.8785  85.2045 14.98320729 69094,6950.222,96.108,574.088,570.086,0.0
55954.0,STARLINK-5892,PAYLOAD,2024-06-11 11:02:06,14.98344163,0.0002927,70.0008,68.5557,274.8288,85.2536,-0.00030257,-3.703e-05,0.0,0 STARLINK-5892,1 55954U 23037AS  24163.45979885 -.00003703  00000-0 -30257-3 0  9999,2 55954  70.0008  68.5557 0002927 274.8288  85.2536 14.98344163 69175,6950.149,96.106,574.048,569.98,0.0
55954.0,STARLINK-5892,PAYLOAD,2024-06-12 03:03:27,14.98330188,0.0002946,70.0002,66.8741,271.9569,88.1253,-1.583e-06,-1.12e-06,0.0,0 STARLINK-5892,1 55954U 23037AS  24164.12740162 -.00000112  00000-0 -15830-5 0  9991,2 55954  70.0002  66.8741 0002946 271.9569  88.1253 14.98330188 69615,6950.192,96.107,574.105,570.01,0.0
55954.0,STARLINK-5892,PAYLOAD,2024-06-12 22:17:04,14.98324227,0.0003065,69.9996,64.8524,270.585,89.4958,-1.2991e-06,-1.09e-06,0.0,0 STARLINK-5892,1 55954U 23037AS  24164.92852461 -.00000109  00000-0 -12991-5 0  9996,2 55954  69.9996  64.8524 0003065 270.5850  89.4958 14.98324227 69390,6950.211,96.107,574.206,569.946,0.0
55954.0,STARLINK-5892,PAYLOAD,2024-06-13 03:05:28,14.98332477,0.0003036,69.9996,64.347,268.9742,91.1069,2.0761e-06,-6.8e-07,0.0,0 STARLINK-5892,1 55954U 23037AS  24165.12879930 -.00000068  00000-0  20761-5 0  9996,2 55954  69.9996  64.3470 0003036 268.9742  91.1069 14.98332477 69764,6950.185,96.107,574.16,569.94,0.0
55954.0,STARLINK-5892,PAYLOAD,2024-06-13 11:06:08,14.98324407,0.0002975,69.9997,63.5051,261.7966,98.2856,0.00012897,1.446e-05,0.0,0 STARLINK-5892,1 55954U 23037AS  24165.46260066  .00001446  00000-0  12897-3 0  9996,2 55954  69.9997  63.5051 0002975 261.7966  98.2856 14.98324407 69475,6950.21,96.107,574.143,570.007,0.0
55954.0,STARLINK-5892,PAYLOAD,2024-06-13 22:19:04,14.98349093,0.0002939,69.9996,62.3268,271.3965,88.6858,-0.00026528,-3.258e-05,0.0,0 STARLINK-5892,1 55954U 23037AS  24165.92991390 -.00003258  00000-0 -26528-3 0  9999,2 55954  69.9996  62.3268 0002939 271.3965  88.6858 14.98349093 69548,6950.134,96.106,574.041,569.956,0.0
55954.0,STARLINK-5892,PAYLOAD,2024-06-14 03:07:28,14.98336777,0.0003136,69.9997,61.823,270.5225,89.5575,5.5871e-05,5.74e-06,0.0,0 STARLINK-5892,1 55954U 23037AS  24166.13019402  .00000574  00000-0  55871-4 0  9998,2 55954  69.9997  61.8230 0003136 270.5225  89.5575 14.98336777 69576,6950.172,96.107,574.217,569.857,0.0
55954.0,STARLINK-5892,PAYLOAD,2024-06-14 20:44:57,14.98331327,0.0002989,70.0003,59.9713,271.5838,88.4978,4.2475e-05,4.14e-06,0.0,0 STARLINK-5892,1 55954U 23037AS  24166.86455680  .00000414  00000-0  42475-4 0  9999,2 55954  70.0003  59.9713 0002989 271.5838  88.4978 14.98331327 69680,6950.189,96.107,574.131,569.976,0.0
55954.0,STARLINK-5892,PAYLOAD,2024-06-15 09:34:00,14.98346959,0.0003095,69.9996,58.623,272.7257,87.3548,9.1204e-05,9.96e-06,0.0,0 STARLINK-5892,1 55954U 23037AS  24167.39861910  .00000996  00000-0  91204-4 0  9994,2 55954  69.9996  58.6230 0003095 272.7257  87.3548 14.98346959 69762,6950.14,96.106,574.157,569.854,0.0
55954.0,STARLINK-5892,PAYLOAD,2024-06-15 22:23:07,14.98322263,0.0002835,70.0004,57.2782,267.9803,92.1032,-0.0001577,-1.974e-05,0.0,0 STARLINK-5892,1 55954U 23037AS  24167.93272169 -.00001974  00000-0 -15770-3 0  9998,2 55954  70.0004  57.2782 0002835 267.9803  92.1032 14.98322263 69849,6950.217,96.107,574.052,570.111,0.0
55954.0,STARLINK-5892,PAYLOAD,2024-06-16 09:36:03,14.9832373,0.0002711,70.0008,56.1018,261.9786,98.1066,-0.00012966,-1.639e-05,0.0,0 STARLINK-5892,1 55954U 23037AS  24168.40004101 -.00001639  00000-0 -12966-3 0  9992,2 55954  70.0008  56.1018 0002711 261.9786  98.1066 14.98323730 69911,6950.212,96.107,573.961,570.193,0.0
55954.0,STARLINK-5892,PAYLOAD,2024-06-16 22:25:07,14.98330058,0.0002661,70.0003,54.7537,265.2741,94.8114,-0.00014383,-1.809e-05,0.0,0 STARLINK-5892,1 55954U 23037AS  24168.93411848 -.00001809  00000-0 -14383-3 0  9994,2 55954  70.0003  54.7537 0002661 265.2741  94.8114 14.98330058 69994,6950.193,96.107,573.907,570.208,0.0
55954.0,STARLINK-5892,PAYLOAD,2024-06-17 20:51:00,14.98320956,0.0002823,70.0001,52.397,265.0965,94.9872,0.00012007,1.34e-05,0.0,0 STARLINK-5892,1 55954U 23037AS  24169.86875718  .00001340  00000-0  12007-3 0  9996,2 55954  70.0001  52.3970 0002823 265.0965  94.9872 14.98320956 70476,6950.221,96.108,574.048,570.124,0.0
55954.0,STARLINK-5892,PAYLOAD,2024-06-17 22:27:08,14.98324364,0.0002899,69.9999,52.2284,265.3446,94.7382,9.3182e-05,1.019e-05,0.0,0 STARLINK-5892,1 55954U 23037AS  24169.93551587  .00001019  00000-0  93182-4 0  9996,2 55954  69.9999  52.2284 0002899 265.3446  94.7382 14.98324364 70141,6950.21,96.107,574.09,570.06,0.0
55954.0,STARLINK-5892,PAYLOAD,2024-06-18 09:40:04,14.98327031,0.000295,69.9996,51.0496,266.3631,93.7191,7.9264e-05,8.53e-06,0.0,0 STARLINK-5892,1 55954U 23037AS  24170.40283556  .00000853  00000-0  79264-4 0  9998,2 55954  69.9996  51.0496 0002950 266.3631  93.7191 14.98327031 70214,6950.202,96.107,574.117,570.017,0.0
55954.0,STARLINK-5892,PAYLOAD,2024-06-18 22:29:09,14.9833092,0.0002994,69.9995,49.7028,266.3148,93.7668,5.8369e-05,6.04e-06,0.0,0 STARLINK-5892,1 55954U 23037AS  24170.93691433  .00000604  00000-0  58369-4 0  9990,2 55954  69.9995  49.7028 0002994 266.3148  93.7668 14.98330920 70297,6950.19,96.107,574.136,569.974,0.0
55954.0,STARLINK-5892,PAYLOAD,2024-06-19 01:41:25,14.98333244,0.0002971,69.9996,49.3662,266.472,93.6099,8.2258e-05,8.89e-06,0.0,0 STARLINK-5892,1 55954U 23037AS  24171.07043204  .00000889  00000-0  82258-4 0  9992,2 55954  69.9996  49.3662 0002971 266.4720  93.6099 14.98333244 70659,6950.183,96.107,574.113,569.983,0.0
55954.0,STARLINK-5892,PAYLOAD,2024-06-19 09:42:05,14.9832948,0.0002938,69.9996,48.524,266.6003,93.482,1.5596e-05,9.3e-07,0.0,0 STARLINK-5892,1 55954U 23037AS  24171.40423577  .00000093  00000-0  15596-4 0  9992,2 55954  69.9996  48.5240 0002938 266.6003  93.4820 14.98329480 70366,6950.194,96.107,574.101,570.018,0.0
55954.0,STARLINK-5892,PAYLOAD,2024-06-19 20:55:02,14.98328894,0.0002923,69.9996,47.3458,266.6234,93.459,6.4605e-06,-1.6e-07,0.0,0 STARLINK-5892,1 55954U 23037AS  24171.87155642 -.00000016  00000-0  64605-5 0  9990,2 55954  69.9996  47.3458 0002923 266.6234  93.4590 14.98328894 70771,6950.196,96.107,574.093,570.03,0.0
55954.0,STARLINK-5892,PAYLOAD,2024-06-19 22:31:10,14.98329888,0.0002938,69.9997,47.1776,266.6288,93.4535,-2.2963e-05,-3.67e-06,0.0,0 STARLINK-5892,1 55954U 23037AS  24171.93831650 -.00000367  00000-0 -22963-4 0  9997,2 55954  69.9997  47.1776 0002938 266.6288  93.4535 14.98329888 70445,6950.193,96.107,574.1,570.016,0.0
